<?xml version="1.0" encoding="UTF-8"?>
<ndm xmlns:xsi="http://www.w3.org/2001/XMLSchema-instance" xsi:noNamespaceSchemaLocation="https://sanaregistry.org/r/ndmxml_unqualified/ndmxml-2.0.0-master-2.0.xsd">
<omm id="CCSDS_OMM_VERS" version="2.0">
<header><CREATION_DATE/><ORIGINATOR/></header><body><segment><metadata><OBJECT_NAME>KUIPER-00058</OBJECT_NAME><OBJECT_ID>2025-134U</OBJECT_ID><CENTER_NAME>EARTH</CENTER_NAME><REF_FRAME>TEME</REF_FRAME><TIME_SYSTEM>UTC</TIME_SYSTEM><MEAN_ELEMENT_THEORY>SGP4</MEAN_ELEMENT_THEORY></metadata><data><meanElements><EPOCH>2026-01-22T02:38:40.123104</EPOCH><MEAN_MOTION>14.79942318</MEAN_MOTION><ECCENTRICITY>.00031785</ECCENTRICITY><INCLINATION>51.9003</INCLINATION><RA_OF_ASC_NODE>71.5069</RA_OF_ASC_NODE><ARG_OF_PERICENTER>176.1754</ARG_OF_PERICENTER><MEAN_ANOMALY>183.9234</MEAN_ANOMALY></meanElements><tleParameters><EPHEMERIS_TYPE>0</EPHEMERIS_TYPE><CLASSIFICATION_TYPE>U</CLASSIFICATION_TYPE><NORAD_CAT_ID>64518</NORAD_CAT_ID><ELEMENT_SET_NO>999</ELEMENT_SET_NO><REV_AT_EPOCH>3328</REV_AT_EPOCH><BSTAR>-.30946983E-3</BSTAR><MEAN_MOTION_DOT>-.2581E-4</MEAN_MOTION_DOT><MEAN_MOTION_DDOT>0</MEAN_MOTION_DDOT></tleParameters></data></segment></body></omm>
<omm id="CCSDS_OMM_VERS" version="2.0">
<header><CREATION_DATE/><ORIGINATOR/></header><body><segment><metadata><OBJECT_NAME>KUIPER-00059</OBJECT_NAME><OBJECT_ID>2025-134V</OBJECT_ID><CENTER_NAME>EARTH</CENTER_NAME><REF_FRAME>TEME</REF_FRAME><TIME_SYSTEM>UTC</TIME_SYSTEM><MEAN_ELEMENT_THEORY>SGP4</MEAN_ELEMENT_THEORY></metadata><data><meanElements><EPOCH>2026-01-21T12:11:17.000160</EPOCH><MEAN_MOTION>14.79973580</MEAN_MOTION><ECCENTRICITY>.00019151</ECCENTRICITY><INCLINATION>51.9005</INCLINATION><RA_OF_ASC_NODE>69.2239</RA_OF_ASC_NODE><ARG_OF_PERICENTER>5.0610</ARG_OF_PERICENTER><MEAN_ANOMALY>355.0371</MEAN_ANOMALY></meanElements><tleParameters><EPHEMERIS_TYPE>0</EPHEMERIS_TYPE><CLASSIFICATION_TYPE>U</CLASSIFICATION_TYPE><NORAD_CAT_ID>64519</NORAD_CAT_ID><ELEMENT_SET_NO>999</ELEMENT_SET_NO><REV_AT_EPOCH>3326</REV_AT_EPOCH><BSTAR>-.22725822E-2</BSTAR><MEAN_MOTION_DOT>-.17518E-3</MEAN_MOTION_DOT><MEAN_MOTION_DDOT>0</MEAN_MOTION_DDOT></tleParameters></data></segment></body></omm>
<omm id="CCSDS_OMM_VERS" version="2.0">
<header><CREATION_DATE/><ORIGINATOR/></header><body><segment><metadata><OBJECT_NAME>KUIPER-00060</OBJECT_NAME><OBJECT_ID>2025-134W</OBJECT_ID><CENTER_NAME>EARTH</CENTER_NAME><REF_FRAME>TEME</REF_FRAME><TIME_SYSTEM>UTC</TIME_SYSTEM><MEAN_ELEMENT_THEORY>SGP4</MEAN_ELEMENT_THEORY></metadata><data><meanElements><EPOCH>2026-01-22T02:44:03.619392</EPOCH><MEAN_MOTION>14.79941729</MEAN_MOTION><ECCENTRICITY>.00013605</ECCENTRICITY><INCLINATION>51.9036</INCLINATION><RA_OF_ASC_NODE>67.5907</RA_OF_ASC_NODE><ARG_OF_PERICENTER>235.4142</ARG_OF_PERICENTER><MEAN_ANOMALY>124.6693</MEAN_ANOMALY></meanElements><tleParameters><EPHEMERIS_TYPE>0</EPHEMERIS_TYPE><CLASSIFICATION_TYPE>U</CLASSIFICATION_TYPE><NORAD_CAT_ID>64520</NORAD_CAT_ID><ELEMENT_SET_NO>999</ELEMENT_SET_NO><REV_AT_EPOCH>3332</REV_AT_EPOCH><BSTAR>.11362576E-2</BSTAR><MEAN_MOTION_DOT>.8453E-4</MEAN_MOTION_DOT><MEAN_MOTION_DDOT>0</MEAN_MOTION_DDOT></tleParameters></data></segment></body></omm>
<omm id="CCSDS_OMM_VERS" version="2.0">
<header><CREATION_DATE/><ORIGINATOR/></header><body><segment><metadata><OBJECT_NAME>KUIPER-00061</OBJECT_NAME><OBJECT_ID>2025-134X</OBJECT_ID><CENTER_NAME>EARTH</CENTER_NAME><REF_FRAME>TEME</REF_FRAME><TIME_SYSTEM>UTC</TIME_SYSTEM><MEAN_ELEMENT_THEORY>SGP4</MEAN_ELEMENT_THEORY></metadata><data><meanElements><EPOCH>2026-01-21T10:22:23.541888</EPOCH><MEAN_MOTION>14.79957448</MEAN_MOTION><ECCENTRICITY>.00004912</ECCENTRICITY><INCLINATION>51.9003</INCLINATION><RA_OF_ASC_NODE>77.0583</RA_OF_ASC_NODE><ARG_OF_PERICENTER>68.4584</ARG_OF_PERICENTER><MEAN_ANOMALY>291.6430</MEAN_ANOMALY></meanElements><tleParameters><EPHEMERIS_TYPE>0</EPHEMERIS_TYPE><CLASSIFICATION_TYPE>U</CLASSIFICATION_TYPE><NORAD_CAT_ID>64521</NORAD_CAT_ID><ELEMENT_SET_NO>999</ELEMENT_SET_NO><REV_AT_EPOCH>3313</REV_AT_EPOCH><BSTAR>-.2118595E-2</BSTAR><MEAN_MOTION_DOT>-.16342E-3</MEAN_MOTION_DOT><MEAN_MOTION_DDOT>0</MEAN_MOTION_DDOT></tleParameters></data></segment></body></omm>
<omm id="CCSDS_OMM_VERS" version="2.0">
<header><CREATION_DATE/><ORIGINATOR/></header><body><segment><metadata><OBJECT_NAME>KUIPER-00062</OBJECT_NAME><OBJECT_ID>2025-134Y</OBJECT_ID><CENTER_NAME>EARTH</CENTER_NAME><REF_FRAME>TEME</REF_FRAME><TIME_SYSTEM>UTC</TIME_SYSTEM><MEAN_ELEMENT_THEORY>SGP4</MEAN_ELEMENT_THEORY></metadata><data><meanElements><EPOCH>2026-01-22T03:02:30.223680</EPOCH><MEAN_MOTION>14.85205372</MEAN_MOTION><ECCENTRICITY>.00073174</ECCENTRICITY><INCLINATION>51.8967</INCLINATION><RA_OF_ASC_NODE>77.4756</RA_OF_ASC_NODE><ARG_OF_PERICENTER>131.6530</ARG_OF_PERICENTER><MEAN_ANOMALY>228.5062</MEAN_ANOMALY></meanElements><tleParameters><EPHEMERIS_TYPE>0</EPHEMERIS_TYPE><CLASSIFICATION_TYPE>U</CLASSIFICATION_TYPE><NORAD_CAT_ID>64522</NORAD_CAT_ID><ELEMENT_SET_NO>999</ELEMENT_SET_NO><REV_AT_EPOCH>3320</REV_AT_EPOCH><BSTAR>.65597548E-3</BSTAR><MEAN_MOTION_DOT>.5451E-4</MEAN_MOTION_DOT><MEAN_MOTION_DDOT>0</MEAN_MOTION_DDOT></tleParameters></data></segment></body></omm>
<omm id="CCSDS_OMM_VERS" version="2.0">
<header><CREATION_DATE/><ORIGINATOR/></header><body><segment><metadata><OBJECT_NAME>KUIPER-00063</OBJECT_NAME><OBJECT_ID>2025-134Z</OBJECT_ID><CENTER_NAME>EARTH</CENTER_NAME><REF_FRAME>TEME</REF_FRAME><TIME_SYSTEM>UTC</TIME_SYSTEM><MEAN_ELEMENT_THEORY>SGP4</MEAN_ELEMENT_THEORY></metadata><data><meanElements><EPOCH>2026-01-21T11:44:04.282944</EPOCH><MEAN_MOTION>14.80016048</MEAN_MOTION><ECCENTRICITY>.00009511</ECCENTRICITY><INCLINATION>51.9023</INCLINATION><RA_OF_ASC_NODE>86.8110</RA_OF_ASC_NODE><ARG_OF_PERICENTER>34.6071</ARG_OF_PERICENTER><MEAN_ANOMALY>325.4953</MEAN_ANOMALY></meanElements><tleParameters><EPHEMERIS_TYPE>0</EPHEMERIS_TYPE><CLASSIFICATION_TYPE>U</CLASSIFICATION_TYPE><NORAD_CAT_ID>64523</NORAD_CAT_ID><ELEMENT_SET_NO>999</ELEMENT_SET_NO><REV_AT_EPOCH>3301</REV_AT_EPOCH><BSTAR>.15148963E-2</BSTAR><MEAN_MOTION_DOT>.1137E-3</MEAN_MOTION_DOT><MEAN_MOTION_DDOT>0</MEAN_MOTION_DDOT></tleParameters></data></segment></body></omm>
<omm id="CCSDS_OMM_VERS" version="2.0">
<header><CREATION_DATE/><ORIGINATOR/></header><body><segment><metadata><OBJECT_NAME>KUIPER-00064</OBJECT_NAME><OBJECT_ID>2025-134AA</OBJECT_ID><CENTER_NAME>EARTH</CENTER_NAME><REF_FRAME>TEME</REF_FRAME><TIME_SYSTEM>UTC</TIME_SYSTEM><MEAN_ELEMENT_THEORY>SGP4</MEAN_ELEMENT_THEORY></metadata><data><meanElements><EPOCH>2026-01-21T10:10:40.962144</EPOCH><MEAN_MOTION>14.80003601</MEAN_MOTION><ECCENTRICITY>.00002956</ECCENTRICITY><INCLINATION>51.9028</INCLINATION><RA_OF_ASC_NODE>84.5193</RA_OF_ASC_NODE><ARG_OF_PERICENTER>154.5114</ARG_OF_PERICENTER><MEAN_ANOMALY>205.5863</MEAN_ANOMALY></meanElements><tleParameters><EPHEMERIS_TYPE>0</EPHEMERIS_TYPE><CLASSIFICATION_TYPE>U</CLASSIFICATION_TYPE><NORAD_CAT_ID>64524</NORAD_CAT_ID><ELEMENT_SET_NO>999</ELEMENT_SET_NO><REV_AT_EPOCH>3304</REV_AT_EPOCH><BSTAR>.15216603E-2</BSTAR><MEAN_MOTION_DOT>.11418E-3</MEAN_MOTION_DOT><MEAN_MOTION_DDOT>0</MEAN_MOTION_DDOT></tleParameters></data></segment></body></omm>
<omm id="CCSDS_OMM_VERS" version="2.0">
<header><CREATION_DATE/><ORIGINATOR/></header><body><segment><metadata><OBJECT_NAME>KUIPER-00065</OBJECT_NAME><OBJECT_ID>2025-134AB</OBJECT_ID><CENTER_NAME>EARTH</CENTER_NAME><REF_FRAME>TEME</REF_FRAME><TIME_SYSTEM>UTC</TIME_SYSTEM><MEAN_ELEMENT_THEORY>SGP4</MEAN_ELEMENT_THEORY></metadata><data><meanElements><EPOCH>2026-01-21T11:38:34.057824</EPOCH><MEAN_MOTION>14.80135672</MEAN_MOTION><ECCENTRICITY>.00056178</ECCENTRICITY><INCLINATION>51.9026</INCLINATION><RA_OF_ASC_NODE>89.3905</RA_OF_ASC_NODE><ARG_OF_PERICENTER>125.4232</ARG_OF_PERICENTER><MEAN_ANOMALY>234.7256</MEAN_ANOMALY></meanElements><tleParameters><EPHEMERIS_TYPE>0</EPHEMERIS_TYPE><CLASSIFICATION_TYPE>U</CLASSIFICATION_TYPE><NORAD_CAT_ID>64525</NORAD_CAT_ID><ELEMENT_SET_NO>999</ELEMENT_SET_NO><REV_AT_EPOCH>3296</REV_AT_EPOCH><BSTAR>.14815687E-2</BSTAR><MEAN_MOTION_DOT>.11148E-3</MEAN_MOTION_DOT><MEAN_MOTION_DDOT>0</MEAN_MOTION_DDOT></tleParameters></data></segment></body></omm>
<omm id="CCSDS_OMM_VERS" version="2.0">
<header><CREATION_DATE/><ORIGINATOR/></header><body><segment><metadata><OBJECT_NAME>KUIPER-00066</OBJECT_NAME><OBJECT_ID>2025-134AC</OBJECT_ID><CENTER_NAME>EARTH</CENTER_NAME><REF_FRAME>TEME</REF_FRAME><TIME_SYSTEM>UTC</TIME_SYSTEM><MEAN_ELEMENT_THEORY>SGP4</MEAN_ELEMENT_THEORY></metadata><data><meanElements><EPOCH>2026-01-22T05:34:25.477248</EPOCH><MEAN_MOTION>15.22005291</MEAN_MOTION><ECCENTRICITY>.00014749</ECCENTRICITY><INCLINATION>51.8824</INCLINATION><RA_OF_ASC_NODE>43.6372</RA_OF_ASC_NODE><ARG_OF_PERICENTER>80.3902</ARG_OF_PERICENTER><MEAN_ANOMALY>279.7245</MEAN_ANOMALY></meanElements><tleParameters><EPHEMERIS_TYPE>0</EPHEMERIS_TYPE><CLASSIFICATION_TYPE>U</CLASSIFICATION_TYPE><NORAD_CAT_ID>64526</NORAD_CAT_ID><ELEMENT_SET_NO>999</ELEMENT_SET_NO><REV_AT_EPOCH>3368</REV_AT_EPOCH><BSTAR>.78179123E-3</BSTAR><MEAN_MOTION_DOT>.17809E-3</MEAN_MOTION_DOT><MEAN_MOTION_DDOT>0</MEAN_MOTION_DDOT></tleParameters></data></segment></body></omm>

</ndm>
